GPS BIIR-2  (PRN 13)    
1 24876U 97035A   23339.83331020  .00000088  00000+0  00000+0 0  9995
2 24876  55.6142 134.7299 0075399  53.6176 307.0738  2.00564889193416
GPS BIIR-4  (PRN 20)    
1 26360U 00025A   23340.22499560 -.00000073  00000+0  00000+0 0  9992
2 26360  54.5090  56.8017 0041638 206.1023 167.5133  2.00564348172744
GPS BIIR-5  (PRN 22)    
1 26407U 00040A   23340.15788807 -.00000029  00000+0  00000+0 0  9999
2 26407  55.1551 251.9083 0151231 293.2231 233.4055  2.00557409171414
GPS BIIR-8  (PRN 16)    
1 27663U 03005A   23339.75171913 -.00000030  00000+0  00000+0 0  9998
2 27663  55.1962 251.7355 0135914  45.5112 324.6983  2.00560783152771
GPS BIIR-9  (PRN 21)    
1 27704U 03010A   23340.49418444 -.00000078  00000+0  00000+0 0  9998
2 27704  55.1155   1.6091 0251905 321.0494  83.2167  2.00555532151580
GPS BIIR-11 (PRN 19)    
1 28190U 04009A   23340.26127453 -.00000059  00000+0  00000+0 0  9998
2 28190  55.6183 312.7719 0092111 141.8794  33.1676  2.00564498144416
GPS BIIR-13 (PRN 02)    
1 28474U 04045A   23340.52368767 -.00000077  00000+0  00000+0 0  9997
2 28474  55.4430   1.9609 0164530 285.6572 130.8142  2.00536803139905
GPS BIIRM-1 (PRN 17)    
1 28874U 05038A   23340.10804816 -.00000058  00000+0  00000+0 0  9997
2 28874  55.6678 310.2328 0140170 281.5525 166.5421  2.00569205133302
GPS BIIRM-2 (PRN 31)    
1 29486U 06042A   23340.29106458  .00000087  00000+0  00000+0 0  9991
2 29486  54.6794 187.9708 0104840  35.2983  85.4622  2.00565436125863
GPS BIIRM-3 (PRN 12)    
1 29601U 06052A   23340.05101758 -.00000028  00000+0  00000+0 0  9999
2 29601  55.2199 250.6890 0085631  79.7477 281.2588  2.00554744124872
GPS BIIRM-4 (PRN 15)    
1 32260U 07047A   23339.86305338  .00000054  00000+0  00000+0 0  9994
2 32260  53.5105 118.3051 0152515  72.9513 288.6982  2.00574312118275
GPS BIIRM-5 (PRN 29)    
1 32384U 07062A   23340.42600844 -.00000058  00000+0  00000+0 0  9997
2 32384  55.8019 311.0551 0023890 151.4473  25.1301  2.00563519116981
GPS BIIRM-6 (PRN 07)    
1 32711U 08012A   23339.77765629  .00000081  00000+0  00000+0 0  9991
2 32711  54.4485 186.8007 0178503 236.3998 121.9539  2.00560789115217
GPS BIIRM-8 (PRN 05)    
1 35752U 09043A   23340.31816516 -.00000063  00000+0  00000+0 0  9999
2 35752  55.5112  64.0066 0056191  70.3141 335.0850  2.00552767104837
GPS BIIF-1  (PRN 25)    
1 36585U 10022A   23340.34537385 -.00000019  00000+0  00000+0 0  9991
2 36585  54.5219 245.8320 0113577  60.1113 124.8614  2.00566824 99068
GPS BIIF-3  (PRN 24)    
1 38833U 12053A   23339.95050629  .00000089  00000+0  00000+0 0  9997
2 38833  53.5114 181.4068 0147533  53.8672 307.5567  2.00568809 80906
GPS BIIF-4  (PRN 27)    
1 39166U 13023A   23340.31374454 -.00000058  00000+0  00000+0 0  9999
2 39166  55.2815 306.3839 0117939  41.6581 319.2320  2.00564207 77358
GPS BIIF-5  (PRN 30)    
1 39533U 14008A   23339.81750704  .00000080  00000+0  00000+0 0  9994
2 39533  53.5966 186.9832 0067318 215.2187 144.4055  2.00557054 71141
GPS BIIF-6  (PRN 06)    
1 39741U 14026A   23339.60215434 -.00000082  00000+0  00000+0 0  9991
2 39741  56.7054   7.4111 0032478 310.0558  49.7118  2.00550836 69995
GPS BIIF-7  (PRN 09)    
1 40105U 14045A   23339.68503129  .00000070  00000+0  00000+0 0  9993
2 40105  54.8510 125.3817 0027509 116.0984 244.1750  2.00552932 67536
GPS BIIF-8  (PRN 03)    
1 40294U 14068A   23340.05319888 -.00000058  00000+0  00000+0 0  9994
2 40294  56.2558  66.8288 0048547  62.4653 298.0465  2.00577924 66679
GPS BIIF-9  (PRN 26)    
1 40534U 15013A   23340.19877600 -.00000016  00000+0  00000+0 0  9992
2 40534  53.4201 242.4428 0085329  27.6047 332.9001  2.00548911 63290
GPS BIIF-10 (PRN 08)    
1 40730U 15033A   23340.36062461 -.00000059  00000+0  00000+0 0  9999
2 40730  54.7681 304.9512 0089831  14.8660 345.3930  2.00550149 61465
GPS BIIF-11 (PRN 10)    
1 41019U 15062A   23340.40925440 -.00000058  00000+0  00000+0 0  9991
2 41019  56.2389  66.6665 0093238 222.7241 136.5683  2.00562326 59305
GPS BIIF-12 (PRN 32)    
1 41328U 16007A   23340.49537831  .00000073  00000+0  00000+0 0  9992
2 41328  55.0528 126.1486 0073957 234.0152 125.2885  2.00571335 57314
GPS BIII-1  (PRN 04)    
1 43873U 18109A   23340.58923490  .00000078  00000+0  00000+0 0  9999
2 43873  55.2270 128.6796 0027630 190.3040 131.6676  2.00571887 36548
GPS BIII-2  (PRN 18)    
1 44506U 19056A   23340.52449338 -.00000079  00000+0  00000+0 0  9995
2 44506  55.8324   7.7500 0038689 189.8308 343.2139  2.00567850 31549
GPS BIII-3  (PRN 23)    
1 45854U 20041A   23340.54234021 -.00000061  00000+0  00000+0 0  9992
2 45854  55.9608  65.0487 0039346 190.3965 297.6508  2.00561328 25516
GPS BIII-4  (PRN 14)    
1 46826U 20078A   23340.12657522 -.00000025  00000+0  00000+0 0  9991
2 46826  54.2651 248.2962 0037734 194.1448 329.9291  2.00562701 22977
GPS BIII-5  (PRN 11)    
1 48859U 21054A   23340.23450302 -.00000082  00000+0  00000+0 0  9996
2 48859  55.3521   9.5035 0014292 221.9806 204.4917  2.00568803 18227
GPS BIII-6  (PRN 28)    
1 55268U 23009A   23340.60519567  .00000097  00000+0  00000+0 0  9995
2 55268  55.0861 184.7574 0005363  99.1687 271.2228  2.00578587  6727
